{"fetched_at":"2026-07-14T17:40:23.520Z","source":"https://celestrak.org/NORAD/elements/gp.php?GROUP=oneweb&FORMAT=JSON","constellation":"oneweb","records":[{"OBJECT_NAME":"ONEWEB-0207","OBJECT_ID":"2021-031AJ","EPOCH":"2026-07-14T04:47:59.415936","CLASSIFICATION_TYPE":"U","MEAN_MOTION":13.14501128,"ECCENTRICITY":0.0002032,"INCLINATION":87.8973,"RA_OF_ASC_NODE":284.3183,"ARG_OF_PERICENTER":92.4189,"MEAN_ANOMALY":267.7173,"EPHEMERIS_TYPE":0,"NORAD_CAT_ID":48242,"ELEMENT_SET_NO":999,"REV_AT_EPOCH":25184,"BSTAR":-0.00051009,"MEAN_MOTION_DOT":-0.00000176,"MEAN_MOTION_DDOT":0},{"OBJECT_NAME":"ONEWEB-0208","OBJECT_ID":"2021-031AK","EPOCH":"2026-07-14T04:21:45.133632","CLASSIFICATION_TYPE":"U","MEAN_MOTION":13.14501851,"ECCENTRICITY":0.0002359,"INCLINATION":87.8968,"RA_OF_ASC_NODE":284.3282,"ARG_OF_PERICENTER":103.1158,"MEAN_ANOMALY":257.0235,"EPHEMERIS_TYPE":0,"NORAD_CAT_ID":48243,"ELEMENT_SET_NO":999,"REV_AT_EPOCH":25185,"BSTAR":-0.00017378,"MEAN_MOTION_DOT":-5.2e-7,"MEAN_MOTION_DDOT":0},{"OBJECT_NAME":"ONEWEB-0200","OBJECT_ID":"2021-031AL","EPOCH":"2026-07-14T01:39:37.880352","CLASSIFICATION_TYPE":"U","MEAN_MOTION":13.14502111,"ECCENTRICITY":0.0002108,"INCLINATION":87.8979,"RA_OF_ASC_NODE":284.3391,"ARG_OF_PERICENTER":98.5231,"MEAN_ANOMALY":261.6137,"EPHEMERIS_TYPE":0,"NORAD_CAT_ID":48244,"ELEMENT_SET_NO":999,"REV_AT_EPOCH":25176,"BSTAR":0.00029996,"MEAN_MOTION_DOT":0.00000124,"MEAN_MOTION_DDOT":0},{"OBJECT_NAME":"ONEWEB-0217","OBJECT_ID":"2021-031AM","EPOCH":"2026-07-14T03:52:04.249056","CLASSIFICATION_TYPE":"U","MEAN_MOTION":13.14503011,"ECCENTRICITY":0.0002373,"INCLINATION":87.8983,"RA_OF_ASC_NODE":284.3237,"ARG_OF_PERICENTER":104.3368,"MEAN_ANOMALY":255.8025,"EPHEMERIS_TYPE":0,"NORAD_CAT_ID":48245,"ELEMENT_SET_NO":999,"REV_AT_EPOCH":25172,"BSTAR":0.00067823,"MEAN_MOTION_DOT":0.00000264,"MEAN_MOTION_DDOT":0},{"OBJECT_NAME":"ONEWEB-0211","OBJECT_ID":"2021-045A","EPOCH":"2026-07-14T04:16:19.261344","CLASSIFICATION_TYPE":"U","MEAN_MOTION":13.16197978,"ECCENTRICITY":0.0002654,"INCLINATION":87.8991,"RA_OF_ASC_NODE":253.6989,"ARG_OF_PERICENTER":106.1031,"MEAN_ANOMALY":254.0392,"EPHEMERIS_TYPE":0,"NORAD_CAT_ID":48767,"ELEMENT_SET_NO":999,"REV_AT_EPOCH":24799,"BSTAR":-0.00011224,"MEAN_MOTION_DOT":-3e-7,"MEAN_MOTION_DDOT":0},{"OBJECT_NAME":"ONEWEB-0223","OBJECT_ID":"2021-045B","EPOCH":"2026-07-14T04:38:48.849216","CLASSIFICATION_TYPE":"U","MEAN_MOTION":13.15549885,"ECCENTRICITY":0.0002445,"INCLINATION":87.8992,"RA_OF_ASC_NODE":253.8116,"ARG_OF_PERICENTER":111.3173,"MEAN_ANOMALY":248.8219,"EPHEMERIS_TYPE":0,"NORAD_CAT_ID":48768,"ELEMENT_SET_NO":999,"REV_AT_EPOCH":24795,"BSTAR":-0.00045265,"MEAN_MOTION_DOT":-0.00000158,"MEAN_MOTION_DDOT":0},{"OBJECT_NAME":"ONEWEB-0230","OBJECT_ID":"2021-045C","EPOCH":"2026-07-14T03:57:44.898336","CLASSIFICATION_TYPE":"U","MEAN_MOTION":13.15548528,"ECCENTRICITY":0.0001898,"INCLINATION":87.8983,"RA_OF_ASC_NODE":253.8285,"ARG_OF_PERICENTER":94.7313,"MEAN_ANOMALY":265.4034,"EPHEMERIS_TYPE":0,"NORAD_CAT_ID":48769,"ELEMENT_SET_NO":999,"REV_AT_EPOCH":24821,"BSTAR":0.00031008,"MEAN_MOTION_DOT":0.0000013,"MEAN_MOTION_DDOT":0},{"OBJECT_NAME":"ONEWEB-0237","OBJECT_ID":"2021-045D","EPOCH":"2026-07-14T03:41:46.261824","CLASSIFICATION_TYPE":"U","MEAN_MOTION":13.15548113,"ECCENTRICITY":0.0002394,"INCLINATION":87.8983,"RA_OF_ASC_NODE":253.832,"ARG_OF_PERICENTER":100.2984,"MEAN_ANOMALY":259.8417,"EPHEMERIS_TYPE":0,"NORAD_CAT_ID":48770,"ELEMENT_SET_NO":999,"REV_AT_EPOCH":24793,"BSTAR":0.00055452,"MEAN_MOTION_DOT":0.00000222,"MEAN_MOTION_DDOT":0},{"OBJECT_NAME":"ONEWEB-0235","OBJECT_ID":"2021-045E","EPOCH":"2026-07-13T16:08:06.305280","CLASSIFICATION_TYPE":"U","MEAN_MOTION":13.15549888,"ECCENTRICITY":0.0002127,"INCLINATION":87.8992,"RA_OF_ASC_NODE":253.9164,"ARG_OF_PERICENTER":127.5248,"MEAN_ANOMALY":232.6076,"EPHEMERIS_TYPE":0,"NORAD_CAT_ID":48771,"ELEMENT_SET_NO":999,"REV_AT_EPOCH":24786,"BSTAR":0.00013254,"MEAN_MOTION_DOT":6.3e-7,"MEAN_MOTION_DDOT":0},{"OBJECT_NAME":"ONEWEB-0242","OBJECT_ID":"2021-045F","EPOCH":"2026-07-14T04:45:39.686400","CLASSIFICATION_TYPE":"U","MEAN_MOTION":13.15548546,"ECCENTRICITY":0.0001948,"INCLINATION":87.8996,"RA_OF_ASC_NODE":253.8089,"ARG_OF_PERICENTER":102.1044,"MEAN_ANOMALY":258.0305,"EPHEMERIS_TYPE":0,"NORAD_CAT_ID":48772,"ELEMENT_SET_NO":999,"REV_AT_EPOCH":24797,"BSTAR":-0.00027504,"MEAN_MOTION_DOT":-9.1e-7,"MEAN_MOTION_DDOT":0},{"OBJECT_NAME":"ONEWEB-0241","OBJECT_ID":"2021-045G","EPOCH":"2026-07-14T04:27:23.774112","CLASSIFICATION_TYPE":"U","MEAN_MOTION":13.15539641,"ECCENTRICITY":0.0002386,"INCLINATION":87.8986,"RA_OF_ASC_NODE":253.8263,"ARG_OF_PERICENTER":104.1181,"MEAN_ANOMALY":256.0215,"EPHEMERIS_TYPE":0,"NORAD_CAT_ID":48773,"ELEMENT_SET_NO":999,"REV_AT_EPOCH":24788,"BSTAR":-0.000020643,"MEAN_MOTION_DOT":5e-8,"MEAN_MOTION_DDOT":0},{"OBJECT_NAME":"ONEWEB-0243","OBJECT_ID":"2021-045H","EPOCH":"2026-07-14T03:23:30.221664","CLASSIFICATION_TYPE":"U","MEAN_MOTION":13.1555111,"ECCENTRICITY":0.0001832,"INCLINATION":87.8983,"RA_OF_ASC_NODE":253.8479,"ARG_OF_PERICENTER":113.0032,"MEAN_ANOMALY":247.1292,"EPHEMERIS_TYPE":0,"NORAD_CAT_ID":48774,"ELEMENT_SET_NO":999,"REV_AT_EPOCH":24790,"BSTAR":0.00045092,"MEAN_MOTION_DOT":0.00000183,"MEAN_MOTION_DDOT":0},{"OBJECT_NAME":"ONEWEB-0222","OBJECT_ID":"2021-045J","EPOCH":"2026-07-14T04:49:04.387008","CLASSIFICATION_TYPE":"U","MEAN_MOTION":13.15547041,"ECCENTRICITY":0.0002283,"INCLINATION":87.8992,"RA_OF_ASC_NODE":253.8059,"ARG_OF_PERICENTER":106.6003,"MEAN_ANOMALY":253.5378,"EPHEMERIS_TYPE":0,"NORAD_CAT_ID":48775,"ELEMENT_SET_NO":999,"REV_AT_EPOCH":24795,"BSTAR":-0.00012627,"MEAN_MOTION_DOT":-3.5e-7,"MEAN_MOTION_DDOT":0},{"OBJECT_NAME":"ONEWEB-0244","OBJECT_ID":"2021-045K","EPOCH":"2026-07-14T03:37:12.761760","CLASSIFICATION_TYPE":"U","MEAN_MOTION":13.1554821,"ECCENTRICITY":0.0002048,"INCLINATION":87.9006,"RA_OF_ASC_NODE":253.8109,"ARG_OF_PERICENTER":103.7669,"MEAN_ANOMALY":256.3689,"EPHEMERIS_TYPE":0,"NORAD_CAT_ID":48776,"ELEMENT_SET_NO":999,"REV_AT_EPOCH":24851,"BSTAR":0.00049499,"MEAN_MOTION_DOT":0.00000199,"MEAN_MOTION_DDOT":0},{"OBJECT_NAME":"ONEWEB-0247","OBJECT_ID":"2021-045L","EPOCH":"2026-07-14T03:32:38.357088","CLASSIFICATION_TYPE":"U","MEAN_MOTION":13.15552577,"ECCENTRICITY":0.000204,"INCLINATION":87.8985,"RA_OF_ASC_NODE":253.841,"ARG_OF_PERICENTER":122.624,"MEAN_ANOMALY":237.5088,"EPHEMERIS_TYPE":0,"NORAD_CAT_ID":48777,"ELEMENT_SET_NO":999,"REV_AT_EPOCH":24795,"BSTAR":0.0017494,"MEAN_MOTION_DOT":0.00000671,"MEAN_MOTION_DDOT":0},{"OBJECT_NAME":"ONEWEB-0245","OBJECT_ID":"2021-045M","EPOCH":"2026-07-14T03:25:47.201952","CLASSIFICATION_TYPE":"U","MEAN_MOTION":13.15549056,"ECCENTRICITY":0.0002225,"INCLINATION":87.899,"RA_OF_ASC_NODE":253.8242,"ARG_OF_PERICENTER":100.8402,"MEAN_ANOMALY":259.2978,"EPHEMERIS_TYPE":0,"NORAD_CAT_ID":48778,"ELEMENT_SET_NO":999,"REV_AT_EPOCH":24792,"BSTAR":0.00016024,"MEAN_MOTION_DOT":7.3e-7,"MEAN_MOTION_DDOT":0}]}
