ONEWEB-0207             
1 48242U 21031AJ  26195.19999324 -.00000176  00000+0 -51009-3 0  9999
2 48242  87.8973 284.3183 0002032  92.4189 267.7173 13.14501128251842
ONEWEB-0208             
1 48243U 21031AK  26195.18177238 -.00000052  00000+0 -17378-3 0  9995
2 48243  87.8968 284.3282 0002359 103.1158 257.0235 13.14501851251850
ONEWEB-0200             
1 48244U 21031AL  26195.06918843  .00000124  00000+0  29996-3 0  9995
2 48244  87.8979 284.3391 0002108  98.5231 261.6137 13.14502111251767
ONEWEB-0217             
1 48245U 21031AM  26195.16116029  .00000264  00000+0  67823-3 0  9999
2 48245  87.8983 284.3237 0002373 104.3368 255.8025 13.14503011251720
ONEWEB-0211             
1 48767U 21045A   26195.17800071 -.00000030  00000+0 -11224-3 0  9998
2 48767  87.8991 253.6989 0002654 106.1031 254.0392 13.16197978247995
ONEWEB-0223             
1 48768U 21045B   26195.19362094 -.00000158  00000+0 -45265-3 0  9992
2 48768  87.8992 253.8116 0002445 111.3173 248.8219 13.15549885247956
ONEWEB-0230             
1 48769U 21045C   26195.16510299  .00000130  00000+0  31008-3 0  9990
2 48769  87.8983 253.8285 0001898  94.7313 265.4034 13.15548528248218
ONEWEB-0237             
1 48770U 21045D   26195.15400766  .00000222  00000+0  55452-3 0  9999
2 48770  87.8983 253.8320 0002394 100.2984 259.8417 13.15548113247939
ONEWEB-0235             
1 48771U 21045E   26194.67229520  .00000063  00000+0  13254-3 0  9990
2 48771  87.8992 253.9164 0002127 127.5248 232.6076 13.15549888247868
ONEWEB-0242             
1 48772U 21045F   26195.19837600 -.00000091  00000+0 -27504-3 0  9999
2 48772  87.8996 253.8089 0001948 102.1044 258.0305 13.15548546247970
ONEWEB-0241             
1 48773U 21045G   26195.18569183  .00000005  00000+0 -20643-4 0  9999
2 48773  87.8986 253.8263 0002386 104.1181 256.0215 13.15539641247889
ONEWEB-0243             
1 48774U 21045H   26195.14132201  .00000183  00000+0  45092-3 0  9993
2 48774  87.8983 253.8479 0001832 113.0032 247.1292 13.15551110247909
ONEWEB-0222             
1 48775U 21045J   26195.20074522 -.00000035  00000+0 -12627-3 0  9998
2 48775  87.8992 253.8059 0002283 106.6003 253.5378 13.15547041247950
ONEWEB-0244             
1 48776U 21045K   26195.15084215  .00000199  00000+0  49499-3 0  9999
2 48776  87.9006 253.8109 0002048 103.7669 256.3689 13.15548210248517
ONEWEB-0247             
1 48777U 21045L   26195.14766617  .00000671  00000+0  17494-2 0  9996
2 48777  87.8985 253.8410 0002040 122.6240 237.5088 13.15552577247957
ONEWEB-0245             
1 48778U 21045M   26195.14290743  .00000073  00000+0  16024-3 0  9994
2 48778  87.8990 253.8242 0002225 100.8402 259.2978 13.15549056247924
